ALOS (DAICHI)           
1 28931U 06002A   26070.27292900  .00001744  00000+0  30038-3 0  9999
2 28931  98.1220  26.2204 0000861  59.1063 301.0227 14.69816276 73715
H-2A R/B                
1 28932U 06002B   26070.32479406  .00011526  00000+0  57587-3 0  9991
2 28932  98.2415 217.4890 0051863 235.3293 124.3044 15.16461973 94684
RESURS-DK 1             
1 29228U 06021A   26069.85794465  .00003848  00000+0  22500-3 0  9997
2 29228  69.9325 234.0005 0001803 162.5581 197.5648 15.12754122 87705
CZ-4B R/B               
1 29507U 06046C   26070.12641516  .00005621  00000+0  28502-3 0  9993
2 29507  97.5598 115.0318 0031668 262.0381  97.7257 15.16922415 60260
CZ-2C R/B               
1 31114U 07010B   26070.27579591  .00000167  00000+0  95898-4 0  9994
2 31114  98.3979 183.4749 0057878 289.8989  69.5959 14.20246900979940
COSMO-SKYMED 1          
1 31598U 07023A   26070.26916409  .00004240  00000+0  37795-3 0  9993
2 31598  97.8876 261.3134 0001393  99.5754 260.5625 14.96549270 15142
COSMOS 2428             
1 31792U 07029A   26070.30459712  .00000053  00000+0  54272-4 0  9997
2 31792  70.9434 199.9534 0009170 275.4913  84.5162 14.12946507964328
SL-16 R/B               
1 31793U 07029B   26070.33037596  .00000107  00000+0  80317-4 0  9992
2 31793  70.9759 168.9364 0002300 275.9429 140.9811 14.14833769965608
KORONAS-FOTON           
1 33504U 09003A   26070.06103541  .00010595  00000+0  23625-3 0  9992
2 33504  82.4278 274.4521 0011336 145.1603 215.0389 15.43351796945951
CZ-2C R/B               
1 37731U 11030B   26070.31906339  .00002102  00000+0  27060-3 0  9997
2 37731  97.8544  27.5494 0052234 346.7969 171.9733 14.81230291790335
H-2A R/B                
1 38341U 12025E   26070.26779880  .00004188  00000+0  38044-3 0  9993
2 38341  98.4739  37.4406 0043257 309.1902  50.5478 14.95185438748455
SHIJIAN-16 (SJ-16)      
1 39358U 13057A   26070.30500574  .00004227  00000+0  41495-3 0  9993
2 39358  74.9727 182.0302 0015470 108.0962 252.1912 14.92357457671749
SL-4 R/B                
1 39679U 14021B   26070.12223428  .00018747  00000+0  41035-3 0  9993
2 39679  51.6080 330.2898 0097358 108.2387 252.9222 15.39237531656493
ALOS-2                  
1 39766U 14029A   26070.27433709  .00003136  00000+0  42620-3 0  9996
2 39766  97.9187 168.8480 0001403  98.8020 261.3350 14.79512892637109
YAOGAN-29               
1 41038U 15069A   26070.34633735  .00000334  00000+0  47770-4 0  9994
2 41038  98.0144  98.7804 0001800  32.3292 327.8032 14.82996622556123
ASTRO-H (HITOMI)        
1 41337U 16012A   26070.08835636  .00003838  00000+0  22451-3 0  9990
2 41337  31.0007 347.5222 0009799 345.1430  14.8919 15.10017409552440
